GLOBALSTAR M035         
1 25851U 99037A   25284.07326403 -.00000088  00000+0 -93585-3 0  9995
2 25851  51.9924 156.5286 0013405 164.9644 345.5225 11.04540060109066
GLOBALSTAR M032         
1 25852U 99037B   25284.18463624 -.00000065  00000+0  56342-4 0  9990
2 25852  51.9983 333.4783 0012258   2.7316 357.3549 11.19063031147774
GLOBALSTAR M051         
1 25853U 99037C   25284.00892190 -.00000080  00000+0 -19252-3 0  9992
2 25853  51.9761 121.4848 0001492  77.3318 282.7660 11.42205329145625
GLOBALSTAR M030         
1 25854U 99037D   25284.12646170 -.00000087  00000+0 -24699-3 0  9999
2 25854  51.9872 279.9361 0002994 257.3692 102.6790 11.55114851163448
GLOBALSTAR M048         
1 25872U 99041A   25284.15757405 -.00000082  00000+0 -32430-3 0  9998
2 25872  51.9375  60.6405 0013501  29.5025 141.3144 11.33859375138139
GLOBALSTAR M026         
1 25873U 99041B   25284.20205931 -.00000108  00000+0 -16157-2 0  9993
2 25873  52.0001 272.9776 0001826  98.5609 341.4032 11.06852164161334
GLOBALSTAR M043         
1 25874U 99041C   25283.95709112 -.00000017  00000+0  15316-2 0  9999
2 25874  51.9381 173.3781 0013417 144.9653 227.9579 11.25694492135916
GLOBALSTAR M028         
1 25875U 99041D   25284.12263348 -.00000084  00000+0  10415-3 0  9996
2 25875  51.9618 207.3647 0063273 323.8782  35.7813 12.50589260204687
